NORAD_CAT_ID,OBJECT_NAME,OBJECT_TYPE,EPOCH,MEAN_MOTION,ECCENTRICITY,INCLINATION,RA_OF_ASC_NODE,ARG_OF_PERICENTER,MEAN_ANOMALY,BSTAR,MEAN_MOTION_DOT,MEAN_MOTION_DDOT,TLE_LINE0,TLE_LINE1,TLE_LINE2,SEMIMAJOR_AXIS,PERIOD,APOGEE,PERIGEE,DECAYED
50823.0,STARLINK-3334,PAYLOAD,2023-08-08 07:48:32,15.08860092,2.58e-05,53.217,88.5409,86.0864,274.0158,9.3977e-05,1.209e-05,0.0,0 STARLINK-3334,1 50823U 22001W   23220.32537625  .00001209  00000-0  93977-4 0  9996,2 50823  53.2170  88.5409 0000258  86.0864 274.0158 15.08860092 89125,6917.819,95.436,539.862,539.505,0.0
50823.0,STARLINK-3334,PAYLOAD,2023-08-08 15:45:29,15.08841695,3.72e-05,53.2166,87.0528,127.5346,232.568,0.00041774,6.367e-05,0.0,0 STARLINK-3334,1 50823U 22001W   23220.65659464  .00006367  00000-0  41774-3 0  9995,2 50823  53.2166  87.0528 0000372 127.5346 232.5680 15.08841695 89171,6917.875,95.437,539.998,539.483,0.0
50823.0,STARLINK-3334,PAYLOAD,2023-08-09 17:11:39,15.08909893,3.12e-05,53.2161,82.2941,183.6071,176.4919,-0.0011106,-0.00017952,0.0,0 STARLINK-3334,1 50823U 22001W   23221.71642860 -.00017952  00000-0 -11106-2 0  9994,2 50823  53.2161  82.2941 0000312 183.6071 176.4919 15.08909893 89338,6917.667,95.433,539.748,539.316,0.0
50823.0,STARLINK-3334,PAYLOAD,2023-08-09 21:57:49,15.08843492,1.61e-05,53.2173,81.4035,110.9087,249.1922,-2.9179e-05,-7.52e-06,0.0,0 STARLINK-3334,1 50823U 22001W   23221.91515408 -.00000752  00000-0 -29179-4 0  9994,2 50823  53.2173  81.4035 0000161 110.9087 249.1922 15.08843492 89365,6917.87,95.437,539.846,539.623,0.0
50823.0,STARLINK-3334,PAYLOAD,2023-08-10 23:23:58,15.08852525,1.53e-05,53.2171,76.6453,61.9793,298.1214,4.0133e-05,3.52e-06,0.0,0 STARLINK-3334,1 50823U 22001W   23222.97498382  .00000352  00000-0  40133-4 0  9999,2 50823  53.2171  76.6453 0000153  61.9793 298.1214 15.08852525 89526,6917.842,95.437,539.813,539.601,0.0
50823.0,STARLINK-3334,PAYLOAD,2023-08-11 07:20:54,15.08837456,7.36e-05,53.2151,75.1577,83.7968,276.3108,1.5474e-05,-4.1e-07,0.0,0 STARLINK-3334,1 50823U 22001W   23223.30619099 -.00000041  00000-0  15474-4 0  9993,2 50823  53.2151  75.1577 0000736  83.7968 276.3108 15.08837456 89579,6917.888,95.438,540.262,539.244,0.0
50823.0,STARLINK-3334,PAYLOAD,2023-08-12 08:47:05,15.08838966,2.48e-05,53.2172,70.3997,70.7046,289.3973,0.00010031,1.309e-05,0.0,0 STARLINK-3334,1 50823U 22001W   23224.36603166  .00001309  00000-0  10031-3 0  9998,2 50823  53.2172  70.3997 0000248  70.7046 289.3973 15.08838966 89735,6917.884,95.438,539.92,539.577,0.0
50823.0,STARLINK-3334,PAYLOAD,2023-08-13 18:10:10,15.08842922,2.34e-05,53.217,64.155,106.1053,253.9964,9.5418e-05,1.232e-05,0.0,0 STARLINK-3334,1 50823U 22001W   23225.75706775  .00001232  00000-0  95418-4 0  9990,2 50823  53.2170  64.1550 0000234 106.1053 253.9964 15.08842922 89943,6917.871,95.437,539.898,539.575,0.0
50823.0,STARLINK-3334,PAYLOAD,2023-08-14 16:25:34,15.08840138,3.28e-05,53.2169,59.9918,129.3402,230.7619,5.5949e-05,6.03e-06,0.0,0 STARLINK-3334,1 50823U 22001W   23226.68443004  .00000603  00000-0  55949-4 0  9992,2 50823  53.2169  59.9918 0000328 129.3402 230.7619 15.08840138 90084,6917.88,95.438,539.972,539.518,0.0
50823.0,STARLINK-3334,PAYLOAD,2023-08-15 16:16:22,15.08836722,4.61e-05,53.2181,55.5305,43.5768,316.5261,5.7692e-05,6.31e-06,0.0,0 STARLINK-3334,1 50823U 22001W   23227.67803385  .00000631  00000-0  57692-4 0  9992,2 50823  53.2181  55.5305 0000461  43.5768 316.5261 15.08836722 90237,6917.89,95.438,540.074,539.436,0.0
50823.0,STARLINK-3334,PAYLOAD,2023-08-16 11:20:59,15.08861988,8.15e-05,53.2145,51.9659,118.1267,241.9808,-0.00026026,-4.43e-05,0.0,0 STARLINK-3334,1 50823U 22001W   23228.47290966 -.00004430  00000-0 -26026-3 0  9995,2 50823  53.2145  51.9659 0000815 118.1267 241.9808 15.08861988 90358,6917.813,95.436,540.242,539.114,0.0
50823.0,STARLINK-3334,PAYLOAD,2023-08-16 19:17:55,15.0883498,2.89e-05,53.2164,50.4785,78.8138,281.2886,5.2911e-05,5.55e-06,0.0,0 STARLINK-3334,1 50823U 22001W   23228.80411645  .00000555  00000-0  52911-4 0  9996,2 50823  53.2164  50.4785 0000289  78.8138 281.2886 15.08834980 90408,6917.896,95.438,539.961,539.561,0.0
50823.0,STARLINK-3334,PAYLOAD,2023-08-18 06:16:24,15.08842825,4.3e-05,53.2176,43.9364,108.7652,251.3387,1.2275e-06,-2.68e-06,0.0,0 STARLINK-3334,1 50823U 22001W   23230.26139289 -.00000268  00000-0  12275-5 0  9992,2 50823  53.2176  43.9364 0000430 108.7652 251.3387 15.08842825 90628,6917.872,95.437,540.034,539.439,0.0
50823.0,STARLINK-3334,PAYLOAD,2023-08-18 14:13:20,15.08830957,2.2e-05,53.2175,42.4494,109.8019,250.2997,4.1482e-05,3.73e-06,0.0,0 STARLINK-3334,1 50823U 22001W   23230.59260085  .00000373  00000-0  41482-4 0  9994,2 50823  53.2175  42.4494 0000220 109.8019 250.2997 15.08830957 90674,6917.908,95.438,539.925,539.621,0.0
50823.0,STARLINK-3334,PAYLOAD,2023-08-19 10:53:21,15.08849016,5.18e-05,53.2169,38.5821,89.8531,270.2521,-8.5053e-05,-1.641e-05,0.0,0 STARLINK-3334,1 50823U 22001W   23231.45371706 -.00001641  00000-0 -85053-4 0  9996,2 50823  53.2169  38.5821 0000518  89.8531 270.2521 15.08849016 90809,6917.853,95.437,540.076,539.359,0.0
50823.0,STARLINK-3334,PAYLOAD,2023-08-20 17:05:40,15.08837862,3.14e-05,53.2178,32.9326,77.1722,282.9305,0.0001062,1.403e-05,0.0,0 STARLINK-3334,1 50823U 22001W   23232.71227803  .00001403  00000-0  10620-3 0  9995,2 50823  53.2178  32.9326 0000314  77.1722 282.9305 15.08837862 90999,6917.887,95.438,539.969,539.535,0.0
50823.0,STARLINK-3334,PAYLOAD,2023-08-21 20:07:13,15.08847959,3.95e-05,53.2181,27.8772,43.0405,317.0618,0.00011147,1.487e-05,0.0,0 STARLINK-3334,1 50823U 22001W   23233.83835162  .00001487  00000-0  11147-3 0  9999,2 50823  53.2181  27.8772 0000395  43.0405 317.0618 15.08847959 91165,6917.856,95.437,539.994,539.448,0.0
50823.0,STARLINK-3334,PAYLOAD,2023-08-22 10:25:42,15.08834464,4.15e-05,53.2193,25.1965,170.7169,189.3831,-1.7817e-07,-2.9e-06,0.0,0 STARLINK-3334,1 50823U 22001W   23234.43452216 -.00000290  00000-0 -17817-6 0  9997,2 50823  53.2193  25.1965 0000415 170.7169 189.3831 15.08834464 91255,6917.897,95.438,540.049,539.475,0.0
50823.0,STARLINK-3334,PAYLOAD,2023-08-23 10:16:29,15.08841491,9.74e-05,53.2182,20.7418,39.951,320.1554,7.2523e-05,8.67e-06,0.0,0 STARLINK-3334,1 50823U 22001W   23235.42811914  .00000867  00000-0  72523-4 0  9992,2 50823  53.2182  20.7418 0000974  39.9510 320.1554 15.08841491 91405,6917.876,95.437,540.415,539.067,0.0
50823.0,STARLINK-3334,PAYLOAD,2023-08-24 11:42:39,15.08838196,5.23e-05,53.2179,15.9823,48.3744,311.7293,5.5025e-05,5.88e-06,0.0,0 STARLINK-3334,1 50823U 22001W   23236.48796179  .00000588  00000-0  55025-4 0  9992,2 50823  53.2179  15.9823 0000523  48.3744 311.7293 15.08838196 91561,6917.886,95.438,540.113,539.389,0.0
50823.0,STARLINK-3334,PAYLOAD,2023-08-25 13:08:50,15.08839884,0.000124,53.2189,11.2262,24.3571,335.748,5.252e-06,-2.04e-06,0.0,0 STARLINK-3334,1 50823U 22001W   23237.54780555 -.00000204  00000-0  52520-5 0  9995,2 50823  53.2189  11.2262 0001240  24.3571 335.7480 15.08839884 90442,6917.881,95.438,540.604,538.888,0.0
50823.0,STARLINK-3334,PAYLOAD,2023-08-25 17:54:59,15.08843827,8.54e-05,53.2183,10.3331,42.2876,317.8182,2.9904e-05,1.88e-06,0.0,0 STARLINK-3334,1 50823U 22001W   23237.74652099  .00000188  00000-0  29904-4 0  9997,2 50823  53.2183  10.3331 0000854  42.2876 317.8182 15.08843827 91757,6917.869,95.437,540.324,539.143,0.0
50823.0,STARLINK-3334,PAYLOAD,2023-08-26 08:13:28,15.08830829,8.98e-05,53.2176,7.6579,44.6882,315.4182,7.094e-05,8.41e-06,0.0,0 STARLINK-3334,1 50823U 22001W   23238.34268934  .00000841  00000-0  70940-4 0  9997,2 50823  53.2176   7.6579 0000898  44.6882 315.4182 15.08830829 91845,6917.908,95.438,540.395,539.152,0.0
50823.0,STARLINK-3334,PAYLOAD,2023-08-26 11:24:14,15.08830972,9.22e-05,53.2179,7.0631,43.9067,316.1998,6.5911e-05,7.61e-06,0.0,0 STARLINK-3334,1 50823U 22001W   23238.47517027  .00000761  00000-0  65911-4 0  9994,2 50823  53.2179   7.0631 0000922  43.9067 316.1998 15.08830972 90588,6917.908,95.438,540.411,539.135,0.0
50823.0,STARLINK-3334,PAYLOAD,2023-08-26 16:10:23,15.08838852,8.94e-05,53.2181,6.1703,45.3571,314.7494,0.00010487,1.382e-05,0.0,0 STARLINK-3334,1 50823U 22001W   23238.67388504  .00001382  00000-0  10487-3 0  9999,2 50823  53.2181   6.1703 0000894  45.3571 314.7494 15.08838852 91890,6917.884,95.438,540.367,539.13,0.0
50823.0,STARLINK-3334,PAYLOAD,2023-08-27 08:04:15,15.08839962,5.7e-05,53.2177,3.1975,59.8178,300.287,4.5301e-05,4.33e-06,0.0,0 STARLINK-3334,1 50823U 22001W   23239.33628667  .00000433  00000-0  45301-4 0  9990,2 50823  53.2177   3.1975 0000570  59.8178 300.2870 15.08839962 90718,6917.881,95.438,540.14,539.351,0.0
50823.0,STARLINK-3334,PAYLOAD,2023-08-27 14:25:47,15.08843836,6.09e-05,53.2176,2.0082,56.5239,303.5811,7.2284e-05,8.63e-06,0.0,0 STARLINK-3334,1 50823U 22001W   23239.60124350  .00000863  00000-0  72284-4 0  9997,2 50823  53.2176   2.0082 0000609  56.5239 303.5811 15.08843836 90759,6917.869,95.437,540.155,539.312,0.0
50823.0,STARLINK-3334,PAYLOAD,2023-08-28 14:16:34,15.08836486,5.62e-05,53.2172,357.5478,70.7096,289.3957,9.874e-05,1.284e-05,0.0,0 STARLINK-3334,1 50823U 22001W   23240.59484747  .00001284  00000-0  98740-4 0  9999,2 50823  53.2172 357.5478 0000562  70.7096 289.3957 15.08836486 92183,6917.891,95.438,540.145,539.367,0.0
50823.0,STARLINK-3334,PAYLOAD,2023-08-29 01:24:16,15.08844506,7.71e-05,53.2167,355.4685,47.8639,312.2419,7.319e-05,8.77e-06,0.0,0 STARLINK-3334,1 50823U 22001W   23241.05852307  .00000877  00000-0  73190-4 0  9991,2 50823  53.2167 355.4685 0000771  47.8639 312.2419 15.08844506 92253,6917.867,95.437,540.265,539.198,0.0
50823.0,STARLINK-3334,PAYLOAD,2023-08-29 14:07:21,15.08846296,6.16e-05,53.2177,353.0869,74.6366,285.4694,5.5779e-05,6e-06,0.0,0 STARLINK-3334,1 50823U 22001W   23241.58844355  .00000600  00000-0  55779-4 0  9990,2 50823  53.2177 353.0869 0000616  74.6366 285.4694 15.08846296 91056,6917.861,95.437,540.152,539.3,0.0
